P/2016 A2 (Christensen),e,26.4069,291.6141,141.5996,4.749824,0.0952111,0.27102827,172.9319,06/10.0/2020,2000,g 11.5,4.0
# From MPC115881
P/2016 A3 (PANSTARRS),e,8.5110,187.2928,340.9010,7.890243,0.0444701,0.38783845,50.5821,06/10.0/2020,2000,g 10.0,4.0
# From MPC109143
C/2016 A5 (PANSTARRS),e,40.2405,136.1823,321.5055,646.4538,0.0000600,0.99544754,0.0000,06/26.7437/2015,2000,g 13.5,4.0
# From MPC109143
C/2016 A6 (PANSTARRS),e,120.9354,300.3766,141.0565,206.3690,0.0003325,0.98834681,0.0000,11/06.4303/2015,2000,g 15.0,4.0
# From MPC102098
P/2016 A7 (PANSTARRS),e,16.6267,221.4799,352.6310,5.030925,0.0873439,0.56553659,136.8616,06/10.0/2020,2000,g 16.0,4.0
# From MPC106345
C/2016 A8 (LINEAR),e,148.2428,111.3311,130.3722,34.27585,0.0049116,0.94496392,6.7808,06/10.0/2020,2000,g 12.0,4.0
# From MPC107048
C/2016 B1 (NEOWISE),e,50.4641,231.9822,8.6766,442.5281,0.0001059,0.99273777,0.0000,12/04.7778/2016,2000,g  9.5,4.0
# From MPC109143
P/2016 BA14 (PANSTARRS),e,18.8957,180.5344,351.9047,3.024314,0.1873975,0.66523569,290.2265,06/10.0/2020,2000,g 21.0,4.0
# From MPC110494
C/2016 C1 (PANSTARRS),h,02/18.9934/2016,56.2207,181.8053,328.7670,1.002331,8.466624,2000,5.5,4.0
# From MPC101098
C/2016 C2 (NEOWISE),e,38.0775,24.4243,214.5472,65.96890,0.0018395,0.97625174,0.0000,04/19.5258/2016,2000,g 16.0,4.0
# From MPC110494
C/2016 E1 (PANSTARRS),h,06/04.2101/2017,131.8910,233.0622,47.4675,1.005793,8.179873,2000,6.5,4.0
# From MPC 99821
C/2016 E2 (Kowalski),e,135.9047,186.8586,321.9375,140.0344,0.0005948,0.99231697,0.0000,02/06.8796/2016,2000,g 20.0,4.0
# From MPC102098
P/2016 G1 (PANSTARRS),e,10.9690,204.0593,111.2876,2.582458,0.2374949,0.21096918,292.2107,06/10.0/2020,2000,g 14.0,4.0
# From MPEC 2017-D91
P/2016 J1-A (PANSTARRS),e,14.3248,199.8264,46.8802,3.174115,0.1742891,0.22819613,251.8939,06/10.0/2020,2000,g 16.5,4.0
# From MPEC 2017-A77
P/2016 J1-B (PANSTARRS),e,14.3275,199.8312,46.7714,3.173745,0.1743195,0.22804717,252.0127,06/10.0/2020,2000,g 17.0,4.0
# From MPC101099
C/2016 J2 (Denneau),e,130.3363,186.3664,318.6399,636.2733,0.0000614,0.99760965,0.0000,04/12.1753/2016,2000,g 17.0,4.0
# From MPC102099
C/2016 KA (Catalina),e,104.6859,317.5081,63.1980,6489,0.0000019,0.99916689,0.0000,02/02.3027/2016,2000,g  8.5,4.0
# From MPC104792
C/2016 K1 (LINEAR),e,90.9233,325.6253,18.2813,34945,0.0000002,0.99993436,0.0000,07/13.3254/2016,2000,g 13.0,4.0
# From MPC119995
C/2016 M1 (PANSTARRS),e,90.9996,92.2037,209.8768,4185,0.0000036,0.99947148,0.0000,08/10.3014/2018,2000,g  5.0,4.0
# From MPC115881
C/2016 N4 (MASTER),e,72.5972,354.0012,55.9384,2397,0.0000084,0.99866561,0.0000,09/16.4755/2017,2000,g  8.5,4.0
# From MPC119995
C/2016 N6 (PANSTARRS),e,105.8409,298.9900,162.7612,1730,0.0000137,0.99845778,0.0000,07/18.1031/2018,2000,g  7.0,4.0
# From MPC102099
P/2016 P1 (PANSTARRS),e,24.4552,319.5641,270.0569,3.194694,0.1726077,0.28934841,296.9789,06/10.0/2020,2000,g 15.0,4.0
# From MPC102099
C/2016 P4 (PANSTARRS),e,29.8809,320.7342,356.1658,397.5149,0.0001244,0.98517505,0.0000,10/18.0323/2016,2000,g 10.5,4.0
# From MPC118093
C/2016 Q2 (PANSTARRS),e,109.3894,322.2991,84.5001,18445,0.0000004,0.99961602,0.0000,05/11.5328/2021,2000,g  6.0,4.0
# From MPC102955
C/2016 Q4 (Kowalski),e,7.2576,271.2850,99.3991,16.89982,0.0141867,0.58074233,12.2740,06/10.0/2020,2000,g  7.0,4.0
# From MPC119995
C/2016 R2 (PANSTARRS),e,58.2250,80.5693,33.1826,556.7840,0.0000750,0.99532478,0.0000,05/09.3165/2018,2000,g  7.0,4.0
# From MPC102099
C/2016 R3 (Borisov),e,53.0425,78.6643,118.1969,200.0205,0.0003484,0.99774074,0.0000,10/10.4532/2016,2000,g 18.0,4.0
# From MPC109144
P/2016 R4 (Gibbs),e,10.8694,168.2826,173.9981,5.331481,0.0800631,0.47602799,113.6651,06/10.0/2020,2000,g 12.5,4.0
# From MPC105543
P/2016 S1 (PANSTARRS),e,94.6547,227.5240,273.2714,8.279243,0.0413731,0.71013032,48.8933,06/10.0/2020,2000,g 12.0,4.0
# From MPC105238
C/2016 T1 (Matheny),e,129.8473,56.2837,137.4110,123.7652,0.0007158,0.98138537,0.0000,02/01.2788/2017,2000,g 14.5,4.0
# From MPC107685
C/2016 T2 (Matheny),e,81.3729,339.1559,92.2441,99.13074,0.0009986,0.98076706,0.0000,12/29.0406/2016,2000,g 14.5,4.0
# From MPC110082
C/2016 T3 (PANSTARRS),e,22.6773,271.7416,194.6715,133.3608,0.0006400,0.98012875,0.0000,09/06.5506/2017,2000,g 10.5,4.0
# From MPC103847
C/2016 U1 (NEOWISE),h,01/14.0054/2017,46.3836,61.4753,162.8326,1.000402,0.322022,2000,17.0,4.0
# From MPC106345
C/2016 VZ18 (PANSTARRS),e,23.9839,98.9215,36.4202,169.0060,0.0004486,0.99459106,0.0000,03/06.0604/2017,2000,g 19.5,4.0
# From MPC106345
P/2016 WM48 (Lemmon),e,117.4245,59.9019,36.0836,8.168312,0.0422188,0.78406587,50.7393,06/10.0/2020,2000,g 15.0,4.0
# From MPC119995
C/2016 X1 (Lemmon),e,26.4543,256.4202,224.5205,1370,0.0000194,0.99447999,0.0000,04/29.0565/2019,2000,g  6.0,4.0
# From MPC108594
C/2017 A1 (PANSTARRS),e,49.7918,121.0451,2.0541,77.00821,0.0014585,0.97023555,0.0000,05/16.4074/2017,2000,g 13.0,4.0
# From MPC108594
C/2017 A3 (Elenin),e,98.5372,97.9077,304.0403,43.48374,0.0034373,0.91147996,4.2149,06/10.0/2020,2000,g  9.5,4.0
# From MPC114598
C/2017 AB5 (PANSTARRS),e,32.4355,42.6573,78.3522,2653,0.0000072,0.99652742,0.0000,02/16.1727/2018,2000,g  5.5,4.0
# From MPC119995
C/2017 B3 (LINEAR),h,02/02.6345/2019,54.1746,2.1795,284.7809,1.001901,3.922001,2000,6.0,4.0
# From MPC103847
P/2017 B4 (PANSTARRS),e,20.0584,121.4578,11.0197,4.410520,0.1064068,0.36495152,359.9130,01/05.0/2017,2000,g 14.5,4.0
# From MPC104793
C/2017 C1 (NEOWISE),e,65.7487,357.5059,110.1167,20.61022,0.0105337,0.92718097,13.0466,06/10.0/2020,2000,g 18.0,4.0
# From MPC107685
C/2017 C2 (PANSTARRS),e,118.5883,249.8052,138.6410,97.08773,0.0010303,0.97502794,0.0000,01/21.6020/2017,2000,g 14.0,4.0
# From MPC104793
P/2017 D1 (Fuls),e,20.7579,82.1795,8.0944,4.829975,0.0928510,0.43652861,134.2400,06/10.0/2020,2000,g 14.0,4.0
# From MPC112391
C/2017 D2 (Barros),e,31.2567,330.9731,334.4695,3286,0.0000052,0.99924277,0.0000,07/14.8519/2017,2000,g 11.0,4.0
# From MPC114598
C/2017 D3 (ATLAS),h,04/27.2892/2017,125.5793,186.6563,340.8586,1.002073,4.974011,2000,8.0,4.0
# From MPC110495
P/2017 D4 (PANSTARRS),e,10.5289,264.9388,212.3201,7.567871,0.0473417,0.62855043,65.0062,06/10.0/2020,2000,g 13.0,4.0
# From MPC104794
C/2017 D5 (PANSTARRS),e,131.0588,92.7346,287.7783,114.9344,0.0007999,0.98118587,0.0000,01/09.4002/2017,2000,g 16.0,4.0
# From MPC106346
C/2017 E1 (Borisov),h,04/10.5320/2017,14.5675,142.5968,152.6359,1.003014,0.900886,2000,14.0,4.0
# From MPC109144
C/2017 E2 (Tsuchinshan),e,79.0504,11.5877,89.3834,21.53782,0.0098606,0.89082491,14.6971,06/10.0/2020,2000,g 11.5,4.0
# From MPC115882
C/2017 E3 (PANSTARRS),h,06/08.1482/2017,70.6284,220.7327,334.5204,1.006956,5.937573,2000,6.5,4.0
# From MPC105239
C/2017 E4 (Lovejoy),h,04/23.5828/2017,88.1130,223.0874,87.0687,1.001503,0.491319,2000,17.0,4.0
# From MPC105239
C/2017 E5 (Lemmon),e,122.6635,206.3070,306.9030,390.2902,0.0001278,0.99541793,0.0000,06/10.5806/2016,2000,g 13.0,4.0
# From MPC111769
C/2017 F1 (Lemmon),h,11/30.4891/2017,146.4677,158.7825,64.7786,1.004045,4.497045,2000,10.5,4.0
# From MPC114598
C/2017 F2 (PANSTARRS),h,11/27.7193/2017,42.5133,38.6707,135.0491,1.004260,6.931974,2000,7.5,4.0
# From MPC104794
P/2017 G1 (PANSTARRS),e,4.7737,249.6269,224.5719,7.291295,0.0500607,0.65310662,75.2838,06/10.0/2020,2000,g 13.5,4.0
# From MPC108595
P/2017 G2 (PANSTARRS),e,47.9482,79.7915,105.5892,8.074868,0.0429537,0.64848921,46.9904,06/10.0/2020,2000,g 13.0,4.0
# From MPC109144
C/2017 G3 (PANSTARRS),e,159.0589,279.4803,73.1503,310.0456,0.0001805,0.99164296,0.0000,04/15.5372/2017,2000,g 14.0,4.0
# From MPC115882
C/2017 K1 (PANSTARRS),h,03/17.1152/2018,154.0107,225.6541,4.3771,1.001630,7.289205,2000,7.0,4.0
# From MPC119995
C/2017 K2 (PANSTARRS),h,12/19.9743/2022,87.5429,88.2659,236.1602,1.000426,1.799523,2000,1.5,4.0
# From MPC106346
P/2017 K3 (Gasparovic),e,4.2744,354.2964,253.4426,5.580600,0.0747623,0.58082219,82.6386,06/10.0/2020,2000,g 14.5,4.0
# From MPC114598
C/2017 K4 (ATLAS),e,16.6806,298.8682,15.2071,28.44590,0.0064964,0.90685083,5.7404,06/10.0/2020,2000,g 10.0,4.0
# From MPC119995
C/2017 K5 (PANSTARRS),h,03/24.9999/2020,82.2576,102.3741,171.8903,1.006811,7.678813,2000,5.0,4.0
# From MPC114599
C/2017 K6 (Jacques),e,57.2537,85.0504,303.7659,1055,0.0000288,0.99810486,0.0000,01/03.2418/2018,2000,g 11.0,4.0
# From MPC110083
C/2017 M3 (PANSTARRS),e,77.5376,7.0076,110.3560,167.4682,0.0004548,0.97218412,0.0000,04/28.1646/2017,2000,g 10.5,4.0
# From MPC118093
C/2017 M4 (ATLAS),h,01/17.8844/2019,105.6447,65.8654,167.5704,1.001160,3.251914,2000,6.0,4.0
# From MPC118841
C/2017 M5 (TOTAS),h,06/03.8706/2018,15.8812,216.2761,92.7299,1.005160,5.991981,2000,6.5,4.0
# From MPC114599
C/2017 O1 (ASASSN),e,39.8818,25.7755,20.8538,357.3173,0.0001459,0.99581332,0.0000,10/14.7460/2017,2000,g 11.0,4.0
# From MPC114599
P/2017 P1 (PANSTARRS),e,7.6986,221.4013,122.2068,7.889422,0.0444771,0.31041326,32.1512,06/10.0/2020,2000,g 10.0,4.0
# From MPC114599
C/2017 P2 (PANSTARRS),e,50.0590,165.5037,132.3229,1953,0.0000114,0.99873840,0.0000,12/06.6909/2017,2000,g 10.0,4.0
# From MPC114599
P/2017 R1 (PANSTARRS),e,2.5737,143.6214,178.5272,4.134879,0.1172222,0.19559763,135.6853,06/10.0/2020,2000,g 13.5,4.0
# From MPC108595
C/2017 S2 (PANSTARRS),e,12.6799,62.4138,305.9372,20.51077,0.0106104,0.82391561,10.7749,06/10.0/2020,2000,g 13.0,4.0
# From MPC114599
C/2017 S3 (PANSTARRS),h,08/15.9668/2018,99.1072,171.1392,255.8426,1.000049,0.208382,2000,11.0,4.0
# From MPC114599
P/2017 S5 (ATLAS),e,11.8503,252.3846,99.8342,3.168880,0.1747211,0.31387552,183.0505,06/10.0/2020,2000,g 14.0,4.0
# From MPC109591
C/2017 S6 (Catalina),h,02/26.6256/2018,152.8675,131.0448,134.7928,1.000680,1.542203,2000,12.5,4.0
# From MPC114599
C/2017 S7 (Lemmon),h,05/25.8376/2017,124.2324,262.7909,187.6198,1.001089,7.609071,2000,7.0,4.0
# From MPC114599
P/2017 S8 (PANSTARRS),e,29.8214,191.7088,254.7227,2.778610,0.2127956,0.39251354,183.8570,06/10.0/2020,2000,g 16.0,4.0
# From MPC107050
